{
    "CCSDS_OMM_VERS": "3.0",
    "COMMENT": "GENERATED VIA SPACE-TRACK.ORG API",
    "CREATION_DATE": "2025-11-24T07:26:19",
    "ORIGINATOR": "18 SPCS",
    "OBJECT_NAME": "QZS-3",
    "OBJECT_ID": "2017-048A",
    "CENTER_NAME": "EARTH",
    "REF_FRAME": "TEME",
    "TIME_SYSTEM": "UTC",
    "MEAN_ELEMENT_THEORY": "SGP4",
    "EPOCH": "2025-11-23T23:12:48.466368",
    "MEAN_MOTION": "1.00270216",
    "ECCENTRICITY": "0.00009510",
    "INCLINATION": "0.0760",
    "RA_OF_ASC_NODE": "128.2487",
    "ARG_OF_PERICENTER": "95.6221",
    "MEAN_ANOMALY": "314.5732",
    "EPHEMERIS_TYPE": "0",
    "CLASSIFICATION_TYPE": "U",
    "NORAD_CAT_ID": "42917",
    "ELEMENT_SET_NO": "999",
    "REV_AT_EPOCH": "3020",
    "BSTAR": "0.00000000000000",
    "MEAN_MOTION_DOT": "-0.00000327",
    "MEAN_MOTION_DDOT": "0.0000000000000",
    "SEMIMAJOR_AXIS": "42165.172",
    "PERIOD": "1436.119",
    "APOAPSIS": "35791.047",
    "PERIAPSIS": "35783.027",
    "OBJECT_TYPE": "PAYLOAD",
    "RCS_SIZE": "LARGE",
    "COUNTRY_CODE": "JPN",
    "LAUNCH_DATE": "2017-08-19",
    "SITE": "TNSTA",
    "DECAY_DATE": null,
    "FILE": "4896987",
    "GP_ID": "303366672",
    "TLE_LINE0": "0 QZS-3",
    "TLE_LINE1": "1 42917U 17048A   25327.96722762 -.00000327  00000-0  00000+0 0  9995",
    "TLE_LINE2": "2 42917   0.0760 128.2487 0000951  95.6221 314.5732  1.00270216 30209"
}